CCSDS_OMM_VERS = 2.0
CREATION_DATE  = 
ORIGINATOR     = 

OBJECT_NAME    = ALOS-2
OBJECT_ID      = 2014-029A
CENTER_NAME    = EARTH
REF_FRAME      = TEME
TIME_SYSTEM    = UTC
MEAN_ELEMENT_THEORY = SGP/SGP4

EPOCH          = 2026-03-20T04:50:15.489024
MEAN_MOTION    = 14.79409452
ECCENTRICITY   = .0001792
INCLINATION    = 97.9197
RA_OF_ASC_NODE = 177.6462
ARG_OF_PERICENTER = 110.0685
MEAN_ANOMALY   = 250.0719

EPHEMERIS_TYPE = 0
CLASSIFICATION_TYPE = U
NORAD_CAT_ID   = 39766
ELEMENT_SET_NO = 999
REV_AT_EPOCH   = 63842
BSTAR          = .64253E-4
MEAN_MOTION_DOT = .428E-5
MEAN_MOTION_DDOT = 0

CCSDS_OMM_VERS = 2.0
CREATION_DATE  = 
ORIGINATOR     = 

OBJECT_NAME    = YAOGAN-29
OBJECT_ID      = 2015-069A
CENTER_NAME    = EARTH
REF_FRAME      = TEME
TIME_SYSTEM    = UTC
MEAN_ELEMENT_THEORY = SGP/SGP4

EPOCH          = 2026-03-20T04:26:36.516768
MEAN_MOTION    = 14.83007832
ECCENTRICITY   = .0001194
INCLINATION    = 98.0126
RA_OF_ASC_NODE = 107.6421
ARG_OF_PERICENTER = 22.3384
MEAN_ANOMALY   = 337.7881

EPHEMERIS_TYPE = 0
CLASSIFICATION_TYPE = U
NORAD_CAT_ID   = 41038
ELEMENT_SET_NO = 999
REV_AT_EPOCH   = 55743
BSTAR          = .78708E-4
MEAN_MOTION_DOT = .585E-5
MEAN_MOTION_DDOT = 0

CCSDS_OMM_VERS = 2.0
CREATION_DATE  = 
ORIGINATOR     = 

OBJECT_NAME    = ASTRO-H (HITOMI)
OBJECT_ID      = 2016-012A
CENTER_NAME    = EARTH
REF_FRAME      = TEME
TIME_SYSTEM    = UTC
MEAN_ELEMENT_THEORY = SGP/SGP4

EPOCH          = 2026-03-19T19:31:42.957696
MEAN_MOTION    = 15.10068181
ECCENTRICITY   = .00096184
INCLINATION    = 30.9993
RA_OF_ASC_NODE = 291.2126
ARG_OF_PERICENTER = 72.9706
MEAN_ANOMALY   = 287.1986

EPHEMERIS_TYPE = 0
CLASSIFICATION_TYPE = U
NORAD_CAT_ID   = 41337
ELEMENT_SET_NO = 999
REV_AT_EPOCH   = 55376
BSTAR          = .15439138E-3
MEAN_MOTION_DOT = .2672E-4
MEAN_MOTION_DDOT = 0

CCSDS_OMM_VERS = 2.0
CREATION_DATE  = 
ORIGINATOR     = 

OBJECT_NAME    = HXMT (HUIYAN)
OBJECT_ID      = 2017-034A
CENTER_NAME    = EARTH
REF_FRAME      = TEME
TIME_SYSTEM    = UTC
MEAN_ELEMENT_THEORY = SGP/SGP4

EPOCH          = 2026-03-20T02:40:16.152384
MEAN_MOTION    = 15.17597517
ECCENTRICITY   = .0032952
INCLINATION    = 43.0149
RA_OF_ASC_NODE = 318.7290
ARG_OF_PERICENTER = 299.3815
MEAN_ANOMALY   = 60.3745

EPHEMERIS_TYPE = 0
CLASSIFICATION_TYPE = U
NORAD_CAT_ID   = 42758
ELEMENT_SET_NO = 999
REV_AT_EPOCH   = 48412
BSTAR          = .24485E-3
MEAN_MOTION_DOT = .484E-4
MEAN_MOTION_DDOT = 0

CCSDS_OMM_VERS = 2.0
CREATION_DATE  = 
ORIGINATOR     = 

OBJECT_NAME    = SAOCOM 1A
OBJECT_ID      = 2018-076A
CENTER_NAME    = EARTH
REF_FRAME      = TEME
TIME_SYSTEM    = UTC
MEAN_ELEMENT_THEORY = SGP/SGP4

EPOCH          = 2026-03-20T03:46:17.143104
MEAN_MOTION    = 14.82152244
ECCENTRICITY   = .0001507
INCLINATION    = 97.8891
RA_OF_ASC_NODE = 267.1818
ARG_OF_PERICENTER = 86.0739
MEAN_ANOMALY   = 274.0646

EPHEMERIS_TYPE = 0
CLASSIFICATION_TYPE = U
NORAD_CAT_ID   = 43641
ELEMENT_SET_NO = 999
REV_AT_EPOCH   = 40291
BSTAR          = .78824E-4
MEAN_MOTION_DOT = .575E-5
MEAN_MOTION_DDOT = 0

CCSDS_OMM_VERS = 2.0
CREATION_DATE  = 
ORIGINATOR     = 

OBJECT_NAME    = H-2A R/B
OBJECT_ID      = 2018-084L
CENTER_NAME    = EARTH
REF_FRAME      = TEME
TIME_SYSTEM    = UTC
MEAN_ELEMENT_THEORY = SGP/SGP4

EPOCH          = 2026-03-20T04:23:47.959008
MEAN_MOTION    = 15.41759166
ECCENTRICITY   = .0024556
INCLINATION    = 98.8714
RA_OF_ASC_NODE = 298.8177
ARG_OF_PERICENTER = 349.1904
MEAN_ANOMALY   = 10.8807

EPHEMERIS_TYPE = 0
CLASSIFICATION_TYPE = U
NORAD_CAT_ID   = 43682
ELEMENT_SET_NO = 999
REV_AT_EPOCH   = 40739
BSTAR          = .29373E-3
MEAN_MOTION_DOT = .12444E-3
MEAN_MOTION_DDOT = 0

CCSDS_OMM_VERS = 2.0
CREATION_DATE  = 
ORIGINATOR     = 

OBJECT_NAME    = SAOCOM 1B
OBJECT_ID      = 2020-059A
CENTER_NAME    = EARTH
REF_FRAME      = TEME
TIME_SYSTEM    = UTC
MEAN_ELEMENT_THEORY = SGP/SGP4

EPOCH          = 2026-03-20T04:31:13.967040
MEAN_MOTION    = 14.82144248
ECCENTRICITY   = .0001446
INCLINATION    = 97.8890
RA_OF_ASC_NODE = 266.3105
ARG_OF_PERICENTER = 88.9609
MEAN_ANOMALY   = 271.1770

EPHEMERIS_TYPE = 0
CLASSIFICATION_TYPE = U
NORAD_CAT_ID   = 46265
ELEMENT_SET_NO = 999
REV_AT_EPOCH   = 30030
BSTAR          = -.26143E-4
MEAN_MOTION_DOT = -.26E-5
MEAN_MOTION_DDOT = 0

CCSDS_OMM_VERS = 2.0
CREATION_DATE  = 
ORIGINATOR     = 

OBJECT_NAME    = CSS (TIANHE)
OBJECT_ID      = 2021-035A
CENTER_NAME    = EARTH
REF_FRAME      = TEME
TIME_SYSTEM    = UTC
MEAN_ELEMENT_THEORY = SGP/SGP4

EPOCH          = 2026-03-20T01:55:42.718656
MEAN_MOTION    = 15.61198195
ECCENTRICITY   = .0005723
INCLINATION    = 41.4665
RA_OF_ASC_NODE = 144.9122
ARG_OF_PERICENTER = 338.4006
MEAN_ANOMALY   = 21.6591

EPHEMERIS_TYPE = 0
CLASSIFICATION_TYPE = U
NORAD_CAT_ID   = 48274
ELEMENT_SET_NO = 999
REV_AT_EPOCH   = 27923
BSTAR          = .25018E-3
MEAN_MOTION_DOT = .21521E-3
MEAN_MOTION_DDOT = 0

CCSDS_OMM_VERS = 2.0
CREATION_DATE  = 
ORIGINATOR     = 

OBJECT_NAME    = COSMOS 2550
OBJECT_ID      = 2021-056A
CENTER_NAME    = EARTH
REF_FRAME      = TEME
TIME_SYSTEM    = UTC
MEAN_ELEMENT_THEORY = SGP/SGP4

EPOCH          = 2026-03-20T08:12:10.305216
MEAN_MOTION    = 15.33831407
ECCENTRICITY   = .0008198
INCLINATION    = 67.1426
RA_OF_ASC_NODE = 8.6599
ARG_OF_PERICENTER = 269.4448
MEAN_ANOMALY   = 90.5767

EPHEMERIS_TYPE = 0
CLASSIFICATION_TYPE = U
NORAD_CAT_ID   = 48865
ELEMENT_SET_NO = 999
REV_AT_EPOCH   = 26509
BSTAR          = .29812E-7
MEAN_MOTION_DOT = -.191E-5
MEAN_MOTION_DDOT = 0

CCSDS_OMM_VERS = 2.0
CREATION_DATE  = 
ORIGINATOR     = 

OBJECT_NAME    = CZ-2C R/B
OBJECT_ID      = 2022-058K
CENTER_NAME    = EARTH
REF_FRAME      = TEME
TIME_SYSTEM    = UTC
MEAN_ELEMENT_THEORY = SGP/SGP4

EPOCH          = 2026-03-19T22:12:10.991808
MEAN_MOTION    = 15.54929442
ECCENTRICITY   = .0041858
INCLINATION    = 50.1871
RA_OF_ASC_NODE = 265.6082
ARG_OF_PERICENTER = 244.5236
MEAN_ANOMALY   = 115.1402

EPHEMERIS_TYPE = 0
CLASSIFICATION_TYPE = U
NORAD_CAT_ID   = 52794
ELEMENT_SET_NO = 999
REV_AT_EPOCH   = 21172
BSTAR          = .44923E-3
MEAN_MOTION_DOT = .31493E-3
MEAN_MOTION_DDOT = 0

CCSDS_OMM_VERS = 2.0
CREATION_DATE  = 
ORIGINATOR     = 

OBJECT_NAME    = CZ-2C R/B
OBJECT_ID      = 2022-132E
CENTER_NAME    = EARTH
REF_FRAME      = TEME
TIME_SYSTEM    = UTC
MEAN_ELEMENT_THEORY = SGP/SGP4

EPOCH          = 2026-03-20T00:05:39.423264
MEAN_MOTION    = 15.62761564
ECCENTRICITY   = .0019495
INCLINATION    = 97.2957
RA_OF_ASC_NODE = 82.6409
ARG_OF_PERICENTER = 58.6214
MEAN_ANOMALY   = 301.6948

EPHEMERIS_TYPE = 0
CLASSIFICATION_TYPE = U
NORAD_CAT_ID   = 54039
ELEMENT_SET_NO = 999
REV_AT_EPOCH   = 19198
BSTAR          = .42935E-3
MEAN_MOTION_DOT = .38928E-3
MEAN_MOTION_DDOT = 0

CCSDS_OMM_VERS = 2.0
CREATION_DATE  = 
ORIGINATOR     = 

OBJECT_NAME    = GSLV R/B
OBJECT_ID      = 2022-138AN
CENTER_NAME    = EARTH
REF_FRAME      = TEME
TIME_SYSTEM    = UTC
MEAN_ELEMENT_THEORY = SGP/SGP4

EPOCH          = 2026-03-20T05:12:18.851040
MEAN_MOTION    = 14.96839128
ECCENTRICITY   = .0023962
INCLINATION    = 87.3869
RA_OF_ASC_NODE = 162.8386
ARG_OF_PERICENTER = 111.6289
MEAN_ANOMALY   = 248.7498

EPHEMERIS_TYPE = 0
CLASSIFICATION_TYPE = U
NORAD_CAT_ID   = 54149
ELEMENT_SET_NO = 999
REV_AT_EPOCH   = 18550
BSTAR          = .17186E-3
MEAN_MOTION_DOT = .2009E-4
MEAN_MOTION_DDOT = 0

